NORAD_CAT_ID,OBJECT_NAME,OBJECT_TYPE,EPOCH,MEAN_MOTION,ECCENTRICITY,INCLINATION,RA_OF_ASC_NODE,ARG_OF_PERICENTER,MEAN_ANOMALY,BSTAR,MEAN_MOTION_DOT,MEAN_MOTION_DDOT,TLE_LINE0,TLE_LINE1,TLE_LINE2,SEMIMAJOR_AXIS,PERIOD,APOGEE,PERIGEE,DECAYED
53010.0,STARLINK-4263,PAYLOAD,2023-04-02 18:13:34,15.08873747,0.0001423,53.2155,226.2004,87.183,272.9325,0.001413,0.00022292,0.0,0 STARLINK-4263,1 53010U 22076AA  23092.75942584  .00022292  00000-0  14130-2 0  9994,2 53010  53.2155 226.2004 0001423  87.1830 272.9325 15.08873747 41493,6917.777,95.435,540.627,538.658,0.0
53010.0,STARLINK-4263,PAYLOAD,2023-04-03 02:10:29,15.08852286,6.48e-05,53.2157,224.7154,94.8314,265.2752,0.000275,4.093e-05,0.0,0 STARLINK-4263,1 53010U 22076AA  23093.09062470  .00004093  00000-0  27500-3 0  9994,2 53010  53.2157 224.7154 0000648  94.8314 265.2752 15.08852286 41544,6917.843,95.437,540.156,539.26,0.0
53010.0,STARLINK-4263,PAYLOAD,2023-04-03 08:32:03,15.0885256,0.000215,53.2157,223.5257,90.4865,269.6373,0.00046051,7.051e-05,0.0,0 STARLINK-4263,1 53010U 22076AA  23093.35559028  .00007051  00000-0  46051-3 0  9992,2 53010  53.2157 223.5257 0002150  90.4865 269.6373 15.08852560 41113,6917.842,95.437,541.194,538.22,0.0
53010.0,STARLINK-4263,PAYLOAD,2023-04-04 02:01:17,15.08850492,0.000132,53.2163,220.255,88.9163,271.1981,0.0011218,0.00017616,0.0,0 STARLINK-4263,1 53010U 22076AA  23094.08423235  .00017616  00000-0  11218-2 0  9997,2 53010  53.2163 220.2550 0001320  88.9163 271.1981 15.08850492 41699,6917.848,95.437,540.626,538.8,0.0
53010.0,STARLINK-4263,PAYLOAD,2023-04-04 11:33:36,15.08851434,0.0001474,53.2164,218.4709,90.323,269.7931,0.00089358,0.00013966,0.0,0 STARLINK-4263,1 53010U 22076AA  23094.48167217  .00013966  00000-0  89358-3 0  9991,2 53010  53.2164 218.4709 0001474  90.3230 269.7931 15.08851434 41759,6917.845,95.437,540.73,538.691,0.0
53010.0,STARLINK-4263,PAYLOAD,2023-04-04 19:30:31,15.08866667,0.0001607,53.2149,216.9806,96.8606,263.2569,0.0011528,0.0001812,0.0,0 STARLINK-4263,1 53010U 22076AA  23094.81286614  .00018120  00000-0  11528-2 0  9991,2 53010  53.2149 216.9806 0001607  96.8606 263.2569 15.08866667 41333,6917.799,95.436,540.776,538.552,0.0
53010.0,STARLINK-4263,PAYLOAD,2023-04-05 14:35:09,15.0883318,0.0001416,53.2151,213.4129,110.1528,249.9616,0.00026521,3.935e-05,0.0,0 STARLINK-4263,1 53010U 22076AA  23095.60775331  .00003935  00000-0  26521-3 0  9996,2 53010  53.2151 213.4129 0001416 110.1528 249.9616 15.08833180 41458,6917.901,95.438,540.746,538.787,0.0
53010.0,STARLINK-4263,PAYLOAD,2023-04-06 11:15:11,15.08838491,0.0001347,53.2153,209.5476,103.4261,256.6881,0.0004991,7.664e-05,0.0,0 STARLINK-4263,1 53010U 22076AA  23096.46887921  .00007664  00000-0  49910-3 0  9990,2 53010  53.2153 209.5476 0001347 103.4261 256.6881 15.08838491 41586,6917.885,95.438,540.682,538.818,0.0
53010.0,STARLINK-4263,PAYLOAD,2023-04-07 06:19:48,15.08850387,0.0001366,53.2177,205.9814,102.8894,257.2251,0.00044732,6.84e-05,0.0,0 STARLINK-4263,1 53010U 22076AA  23097.26375594  .00006840  00000-0  44732-3 0  9999,2 53010  53.2177 205.9814 0001366 102.8894 257.2251 15.08850387 42176,6917.849,95.437,540.659,538.769,0.0
53010.0,STARLINK-4263,PAYLOAD,2023-04-07 11:05:57,15.08849045,0.0001411,53.2177,205.0891,102.6199,257.4951,0.00035203,5.32e-05,0.0,0 STARLINK-4263,1 53010U 22076AA  23097.46247565  .00005320  00000-0  35203-3 0  9992,2 53010  53.2177 205.0891 0001411 102.6199 257.4951 15.08849045 41738,6917.853,95.437,540.694,538.742,0.0
53010.0,STARLINK-4263,PAYLOAD,2023-04-08 06:10:35,15.08842607,0.000157,53.2186,201.5237,102.3981,257.7187,0.00019402,2.801e-05,0.0,0 STARLINK-4263,1 53010U 22076AA  23098.25735624  .00002801  00000-0  19402-3 0  9992,2 53010  53.2186 201.5237 0001570 102.3981 257.7187 15.08842607 42322,6917.872,95.437,540.824,538.651,0.0
53010.0,STARLINK-4263,PAYLOAD,2023-04-08 12:32:08,15.08838652,0.0001546,53.2179,200.3317,99.2671,260.8496,1.5315e-05,-4.4e-07,0.0,0 STARLINK-4263,1 53010U 22076AA  23098.52231852 -.00000044  00000-0  15315-4 0  9994,2 53010  53.2179 200.3317 0001546  99.2671 260.8496 15.08838652 41897,6917.885,95.438,540.819,538.68,0.0
53010.0,STARLINK-4263,PAYLOAD,2023-04-09 10:47:31,15.0884624,0.0001188,53.2154,196.1671,91.5292,268.5836,0.00027229,4.049e-05,0.0,0 STARLINK-4263,1 53010U 22076AA  23099.44967485  .00004049  00000-0  27229-3 0  9998,2 53010  53.2154 196.1671 0001188  91.5292 268.5836 15.08846240 42505,6917.861,95.437,540.548,538.904,0.0
53010.0,STARLINK-4263,PAYLOAD,2023-04-09 15:33:41,15.08852001,0.0001388,53.2151,195.2745,89.0709,271.0443,0.00037276,5.651e-05,0.0,0 STARLINK-4263,1 53010U 22076AA  23099.64839348  .00005651  00000-0  37276-3 0  9999,2 53010  53.2151 195.2745 0001388  89.0709 271.0443 15.08852001 42067,6917.844,95.437,540.669,538.749,0.0
53010.0,STARLINK-4263,PAYLOAD,2023-04-10 05:52:09,15.08843934,0.000177,53.2159,192.6004,79.6975,280.4217,0.00020956,3.049e-05,0.0,0 STARLINK-4263,1 53010U 22076AA  23100.24455800  .00003049  00000-0  20956-3 0  9991,2 53010  53.2159 192.6004 0001770  79.6975 280.4217 15.08843934 42629,6917.868,95.437,540.958,538.509,0.0
53010.0,STARLINK-4263,PAYLOAD,2023-04-11 12:04:28,15.08851943,0.0001551,53.2155,186.9497,72.7503,287.3659,0.00044756,6.844e-05,0.0,0 STARLINK-4263,1 53010U 22076AA  23101.50311341  .00006844  00000-0  44756-3 0  9992,2 53010  53.2155 186.9497 0001551  72.7503 287.3659 15.08851943 42811,6917.844,95.437,540.782,538.636,0.0
53010.0,STARLINK-4263,PAYLOAD,2023-04-12 11:55:16,15.08832755,0.0001418,53.2157,182.4892,86.2229,273.8925,-6.2375e-05,-1.28e-05,0.0,0 STARLINK-4263,1 53010U 22076AA  23102.49671921 -.00001280  00000-0 -62375-4 0  9993,2 53010  53.2157 182.4892 0001418  86.2229 273.8925 15.08832755 42490,6917.903,95.438,540.748,538.787,0.0
53010.0,STARLINK-4263,PAYLOAD,2023-04-13 10:10:40,15.08847962,0.0001399,53.2156,178.3252,94.9099,265.2053,0.00039574,6.017e-05,0.0,0 STARLINK-4263,1 53010U 22076AA  23103.42407712  .00006017  00000-0  39574-3 0  9997,2 53010  53.2156 178.3252 0001399  94.9099 265.2053 15.08847962 42631,6917.856,95.437,540.689,538.753,0.0
53010.0,STARLINK-4263,PAYLOAD,2023-04-13 11:46:03,15.088491,0.0001422,53.2154,178.0279,96.0031,264.1123,0.00064766,0.00010037,0.0,0 STARLINK-4263,1 53010U 22076AA  23103.49031828  .00010037  00000-0  64766-3 0  9993,2 53010  53.2154 178.0279 0001422  96.0031 264.1123 15.08849100 43117,6917.853,95.437,540.701,538.734,0.0
53010.0,STARLINK-4263,PAYLOAD,2023-04-14 10:01:27,15.08838545,0.0001267,53.216,173.8654,105.0697,255.0435,0.00015754,2.22e-05,0.0,0 STARLINK-4263,1 53010U 22076AA  23104.41767945  .00002220  00000-0  15754-3 0  9990,2 53010  53.2160 173.8654 0001267 105.0697 255.0435 15.08838545 43251,6917.885,95.438,540.626,538.873,0.0
53010.0,STARLINK-4263,PAYLOAD,2023-04-14 11:36:50,15.08840855,0.0001387,53.215,173.5658,119.6187,240.4944,0.00015788,2.226e-05,0.0,0 STARLINK-4263,1 53010U 22076AA  23104.48391775  .00002226  00000-0  15788-3 0  9994,2 53010  53.2150 173.5658 0001387 119.6187 240.4944 15.08840855 42797,6917.878,95.438,540.702,538.783,0.0
53010.0,STARLINK-4263,PAYLOAD,2023-04-15 09:52:14,15.08846135,0.0001079,53.2148,169.4038,99.2233,260.8881,0.00015202,2.133e-05,0.0,0 STARLINK-4263,1 53010U 22076AA  23105.41127581  .00002133  00000-0  15202-3 0  9998,2 53010  53.2148 169.4038 0001079  99.2233 260.8881 15.08846135 42932,6917.862,95.437,540.473,538.98,0.0
53010.0,STARLINK-4263,PAYLOAD,2023-04-15 20:59:56,15.08838325,0.000103,53.2149,167.3217,105.6174,254.4932,7.6356e-05,9.28e-06,0.0,0 STARLINK-4263,1 53010U 22076AA  23105.87495789  .00000928  00000-0  76356-4 0  9994,2 53010  53.2149 167.3217 0001030 105.6174 254.4932 15.08838325 43470,6917.886,95.438,540.463,539.038,0.0
53010.0,STARLINK-4263,PAYLOAD,2023-04-16 12:53:47,15.08851407,0.0001102,53.215,164.3494,102.9055,257.2061,0.00056502,8.719e-05,0.0,0 STARLINK-4263,1 53010U 22076AA  23106.53735643  .00008719  00000-0  56502-3 0  9990,2 53010  53.2150 164.3494 0001102 102.9055 257.2061 15.08851407 43104,6917.846,95.437,540.473,538.948,0.0
53010.0,STARLINK-4263,PAYLOAD,2023-04-16 16:04:33,15.08856774,0.000111,53.215,163.7537,96.3777,263.7342,0.00081899,0.00012776,0.0,0 STARLINK-4263,1 53010U 22076AA  23106.66983518  .00012776  00000-0  81899-3 0  9995,2 53010  53.2150 163.7537 0001110  96.3777 263.7342 15.08856774 43590,6917.829,95.436,540.462,538.926,0.0
53010.0,STARLINK-4263,PAYLOAD,2023-04-17 11:09:12,15.08842732,0.0001206,53.215,160.1873,77.2454,282.8673,0.0014967,0.00023614,0.0,0 STARLINK-4263,1 53010U 22076AA  23107.46472442  .00023614  00000-0  14967-2 0  9997,2 53010  53.2150 160.1873 0001206  77.2454 282.8673 15.08842732 43240,6917.872,95.437,540.571,538.903,0.0
53010.0,STARLINK-4263,PAYLOAD,2023-04-17 20:41:30,15.08846996,3.05e-05,53.2148,158.4045,232.7946,127.3018,0.00078165,0.00012177,0.0,0 STARLINK-4263,1 53010U 22076AA  23107.86215898  .00012177  00000-0  78165-3 0  9994,2 53010  53.2148 158.4045 0000305 232.7946 127.3018 15.08846996 43300,6917.859,95.437,539.935,539.513,0.0
53010.0,STARLINK-4263,PAYLOAD,2023-04-18 09:24:36,15.08852363,0.0001147,53.2143,156.0231,97.0559,263.0564,0.0013623,0.00021467,0.0,0 STARLINK-4263,1 53010U 22076AA  23108.39208357  .00021467  00000-0  13623-2 0  9994,2 53010  53.2143 156.0231 0001147  97.0559 263.0564 15.08852363 43380,6917.843,95.437,540.501,538.914,0.0
53010.0,STARLINK-4263,PAYLOAD,2023-04-18 20:32:18,15.08850224,0.0001532,53.2133,153.9449,55.0595,305.0541,0.0009882,0.00015479,0.0,0 STARLINK-4263,1 53010U 22076AA  23108.85576554  .00015479  00000-0  98820-3 0  9991,2 53010  53.2133 153.9449 0001532  55.0595 305.0541 15.08850224 43924,6917.849,95.437,540.774,538.654,0.0
53010.0,STARLINK-4263,PAYLOAD,2023-04-19 02:53:50,15.08845858,0.0001784,53.2142,152.7559,66.2213,293.8966,0.00047279,7.246e-05,0.0,0 STARLINK-4263,1 53010U 22076AA  23109.12072718  .00007246  00000-0  47279-3 0  9990,2 53010  53.2142 152.7559 0001784  66.2213 293.8966 15.08845858 43969,6917.862,95.437,540.962,538.493,0.0
